     2.10           NAVIGATION DATA     GPS(GPS)            RINEX VERSION / TYPE
convertToRinex 1.14 convertToRINEX OPR  21-Jan-08 20:42 UTC PGM / RUN BY / DATE 
----------------------------------------------------------- COMMENT             
    0.7451D-08 -0.1490D-07 -0.5960D-07  0.1192D-06          ION ALPHA           
    0.8806D+05 -0.4915D+05 -0.1966D+06  0.3277D+06          ION BETA            
    0.177635683940D-14 0.186264514923D-08   233472      183 DELTA-UTC: A0,A1,T,W
    14                                                      LEAP SECONDS        
                                                            END OF HEADER       
21 08  1 20 22  0  0.0 0.732727348804D-04-0.682121026330D-12 0.000000000000D+00
    0.530000000000D+02-0.136250000000D+02 0.523878964519D-08-0.207967344860D+01
   -0.925734639168D-06 0.132399167633D-01 0.866875052452D-05 0.515374484062D+04
    0.792000000000D+05 0.726431608200D-07 0.212282485499D+01-0.199303030968D-06
    0.936961402055D+00 0.199656250000D+03-0.277501021303D+01-0.811605235187D-08
   -0.492163357722D-09 0.100000000000D+01 0.146300000000D+04 0.000000000000D+00
    0.240000000000D+01 0.000000000000D+00-0.121071934700D-07 0.530000000000D+02
    0.729780000000D+05 0.400000000000D+01 0.000000000000D+00 0.000000000000D+00
 5 08  1 20 22  0  0.0 0.655262731016D-03 0.165982783074D-10 0.000000000000D+00
    0.150000000000D+02-0.923750000000D+02 0.445661420730D-08 0.290451669495D+01
   -0.472366809845D-05 0.851229729597D-02 0.110827386379D-04 0.515366718674D+04
    0.792000000000D+05 0.819563865662D-07-0.888954649558D-01-0.409781932831D-07
    0.942056992958D+00 0.155312500000D+03 0.121869599988D+01-0.765746182116D-08
    0.451090218290D-09 0.100000000000D+01 0.146300000000D+04 0.000000000000D+00
    0.240000000000D+01 0.000000000000D+00-0.419095158577D-08 0.150000000000D+02
    0.729780000000D+05 0.400000000000D+01 0.000000000000D+00 0.000000000000D+00
12 08  1 20 22  0  0.0-0.354680698365D-03-0.909494701773D-12 0.000000000000D+00
    0.400000000000D+02-0.756250000000D+02 0.410445668138D-08-0.894310054712D+00
   -0.388361513615D-05 0.323075137567D-02 0.112298876047D-04 0.515369255829D+04
    0.792000000000D+05-0.447034835815D-07 0.147800076466D-02 0.428408384323D-07
    0.963516563132D+00 0.166562500000D+03-0.106956540088D+01-0.763853246125D-08
    0.552880172536D-09 0.100000000000D+01 0.146300000000D+04 0.000000000000D+00
    0.240000000000D+01 0.000000000000D+00-0.116415321827D-07 0.400000000000D+02
    0.729780000000D+05 0.400000000000D+01 0.000000000000D+00 0.000000000000D+00
16 08  1 20 22  0  0.0 0.132100656629D-03 0.682121026330D-12 0.000000000000D+00
    0.220000000000D+02-0.625937500000D+02 0.409481342256D-08 0.274409246932D+01
   -0.323355197906D-05 0.428368488792D-02 0.113975256681D-04 0.515381451607D+04
    0.792000000000D+05-0.186264514923D-08 0.176041870908D-01 0.000000000000D+00
    0.965293028444D+00 0.160656250000D+03-0.562934924796D+00-0.758495880112D-08
    0.522878922863D-09 0.100000000000D+01 0.146300000000D+04 0.000000000000D+00
    0.240000000000D+01 0.000000000000D+00-0.977888703346D-08 0.220000000000D+02
    0.729780000000D+05 0.400000000000D+01 0.000000000000D+00 0.000000000000D+00
30 08  1 20 22  0  0.0 0.606486573815D-04 0.136424205266D-11 0.000000000000D+00
    0.116000000000D+03-0.820312500000D+02 0.432268005698D-08 0.245242683456D+01
   -0.419281423092D-05 0.103596945992D-01 0.111684203148D-04 0.515368533897D+04
    0.792000000000D+05 0.193715095520D-06-0.382214646260D-01-0.912696123123D-07
    0.948256103930D+00 0.156562500000D+03 0.136961811176D+01-0.759138764034D-08
    0.506092509356D-09 0.100000000000D+01 0.146300000000D+04 0.000000000000D+00
    0.340000000000D+01 0.000000000000D+00-0.791624188423D-08 0.116000000000D+03
    0.729480000000D+05 0.400000000000D+01 0.000000000000D+00 0.000000000000D+00
29 08  1 20 22  0  0.0-0.751228071749D-04 0.841282599140D-11 0.000000000000D+00
    0.170000000000D+02 0.156875000000D+02 0.493627704432D-08-0.207199375774D+01
    0.920146703720D-06 0.356992299203D-02 0.571273267269D-05 0.515372847748D+04
    0.792000000000D+05-0.186264514923D-08 0.106594369994D+01 0.689178705215D-07
    0.959374913313D+00 0.265718750000D+03-0.141847730516D+01-0.801676250177D-08
    0.453947480163D-09 0.100000000000D+01 0.146300000000D+04 0.000000000000D+00
    0.240000000000D+01 0.000000000000D+00-0.121071934700D-07 0.170000000000D+02
    0.730020000000D+05 0.400000000000D+01 0.000000000000D+00 0.000000000000D+00
 6 08  1 20 22  0  0.0 0.144178047776D-03-0.161435309565D-10 0.000000000000D+00
    0.690000000000D+02 0.198750000000D+02 0.550594363037D-08-0.191351652100D+01
    0.111386179924D-05 0.522928184364D-02 0.554695725441D-05 0.515506769562D+04
    0.792000000000D+05 0.447034835815D-07 0.100790548996D+01 0.745058059692D-07
    0.933169742220D+00 0.252656250000D+03-0.175536287297D+01-0.831570352529D-08
    0.527164815673D-09 0.100000000000D+01 0.146300000000D+04 0.000000000000D+00
    0.240000000000D+01 0.000000000000D+00-0.465661287308D-08 0.690000000000D+02
    0.729480000000D+05 0.400000000000D+01 0.000000000000D+00 0.000000000000D+00
 2 08  1 20 22  0  0.0 0.167859718204D-03 0.306954461848D-11 0.000000000000D+00
    0.630000000000D+02-0.828125000000D+01 0.522486049355D-08 0.809270285904D+00
   -0.592321157455D-06 0.877269124612D-02 0.824034214020D-05 0.515367244911D+04
    0.792000000000D+05 0.119209289551D-06 0.208743194247D+01-0.167638063431D-06
    0.944059618090D+00 0.211781250000D+03 0.244482931435D+01-0.816641159239D-08
   -0.688957269264D-09 0.100000000000D+01 0.146300000000D+04 0.000000000000D+00
    0.240000000000D+01 0.000000000000D+00-0.172294676304D-07 0.630000000000D+02
    0.729480000000D+05 0.400000000000D+01 0.000000000000D+00 0.000000000000D+00
24 08  1 20 22  0  0.0 0.639990903437D-04 0.306954461848D-11 0.000000000000D+00
    0.730000000000D+02-0.471875000000D+01 0.480019994760D-08 0.270749145418D+01
   -0.122934579849D-06 0.805306516122D-02 0.901147723198D-05 0.515365739441D+04
    0.792000000000D+05 0.149011611938D-07 0.214664008900D+01 0.143423676491D-06
    0.953640334422D+00 0.201281250000D+03-0.728339940293D+00-0.784496963162D-08
   -0.725744515886D-09 0.100000000000D+01 0.146300000000D+04 0.000000000000D+00
    0.240000000000D+01 0.000000000000D+00-0.139698386192D-08 0.730000000000D+02
    0.729480000000D+05 0.400000000000D+01 0.000000000000D+00 0.000000000000D+00
10 08  1 20 22  0  0.0-0.216856598854D-03-0.147792889038D-10 0.000000000000D+00
    0.118000000000D+03 0.144968750000D+03 0.409802784217D-08 0.144553366782D+01
    0.780448317528D-05 0.796296633780D-02 0.108759850264D-04 0.515377399635D+04
    0.792000000000D+05-0.577419996262D-07-0.311586106126D+01 0.111758708954D-06
    0.965981286049D+00 0.173843750000D+03 0.516626952272D+00-0.783104047998D-08
   -0.238224208709D-09 0.100000000000D+01 0.146300000000D+04 0.000000000000D+00
    0.485000000000D+01 0.000000000000D+00-0.232830643654D-08 0.118000000000D+03
    0.729480000000D+05 0.400000000000D+01 0.000000000000D+00 0.000000000000D+00
26 08  1 20 21 59 44.0 0.161070376635D-03 0.106865627458D-10 0.000000000000D+00
    0.530000000000D+02 0.653437500000D+02 0.414088677027D-08-0.241234673398D+00
    0.364892184734D-05 0.185662951553D-01 0.143423676491D-06 0.515357999420D+04
    0.791840000000D+05-0.521540641785D-07-0.205208656308D+01 0.234693288803D-06
    0.993113626826D+00 0.391218750000D+03 0.898851391305D+00-0.854464163291D-08
    0.910752222200D-10 0.100000000000D+01 0.146300000000D+04 0.000000000000D+00
    0.240000000000D+01 0.000000000000D+00-0.651925802231D-08 0.530000000000D+02
    0.735780000000D+05 0.400000000000D+01 0.000000000000D+00 0.000000000000D+00
15 08  1 20 22  0  0.0-0.721835531294D-04-0.147792889038D-11 0.000000000000D+00
    0.260000000000D+02 0.826250000000D+02 0.476091259683D-08 0.230646408080D+01
    0.420399010181D-05 0.919248792343D-03-0.560656189919D-06 0.515360971451D+04
    0.792000000000D+05-0.651925802231D-07-0.210482981276D+01-0.745058059692D-08
    0.957500441268D+00 0.383875000000D+03-0.177218272239D+01-0.854714173705D-08
    0.703600736366D-10 0.100000000000D+01 0.146300000000D+04 0.000000000000D+00
    0.240000000000D+01 0.000000000000D+00-0.977888703346D-08 0.260000000000D+02
    0.737280000000D+05 0.400000000000D+01 0.000000000000D+00 0.000000000000D+00
10 08  1 20 21 59 44.0-0.216853804886D-03-0.147792889038D-10 0.000000000000D+00
    0.310000000000D+02 0.144968750000D+03 0.409802784217D-08 0.144319940355D+01
    0.780448317528D-05 0.796296424232D-02 0.108759850264D-04 0.515377400780D+04
    0.791840000000D+05-0.577419996262D-07-0.311586092814D+01 0.111758708954D-06
    0.965981294827D+00 0.173843750000D+03 0.516627574012D+00-0.783104047998D-08
   -0.238224208709D-09 0.100000000000D+01 0.146300000000D+04 0.000000000000D+00
    0.240000000000D+01 0.000000000000D+00-0.232830643654D-08 0.310000000000D+02
    0.744180000000D+05 0.400000000000D+01 0.000000000000D+00 0.000000000000D+00
18 08  1 20 22  0  0.0-0.210707075894D-03 0.284217094304D-11 0.000000000000D+00
    0.750000000000D+02 0.129812500000D+03 0.441089801732D-08 0.291621908284D+01
    0.665523111820D-05 0.888955232222D-02 0.101234763861D-04 0.515366309929D+04
    0.792000000000D+05-0.465661287308D-07-0.310302795620D+01-0.119209289551D-06
    0.950074367737D+00 0.176218750000D+03-0.251831041673D+01-0.775889461768D-08
   -0.137148569931D-09 0.100000000000D+01 0.146300000000D+04 0.000000000000D+00
    0.240000000000D+01 0.000000000000D+00-0.107102096081D-07 0.750000000000D+02
    0.753180000000D+05 0.400000000000D+01 0.000000000000D+00 0.000000000000D+00
